[
  {
    "state": "Arizona",
    "stateShort": "AZ",
    "stores": [
      {
        "city": "Phoenix",
        "pathname": "phoenix",
        "locations": [
          {
            "location": "Chandler",
            "salesforceValue": "Phoenix (Chandler)",
            "stateShort": "AZ",
            "place_id": "ChIJIelTB04HK4cR95v9yd-Nt4A",
            "zipcode": "85226",
            "open": true
          },
          {
            "location": "Peoria",
            "salesforceValue": "Phoenix (Peoria)",
            "stateShort": "AZ",
            "place_id": "ChIJWUr1PBJpK4cReHumnCcIKH8",
            "zipcode": "85382",
            "open": true
          },
          {
            "location": "Scottsdale North",
            "salesforceValue": "Phoenix (Scottsdale North)",
            "stateShort": "AZ",
            "place_id": "ChIJRZe-6Pl1K4cRnMfLCtMA7mA",
            "zipcode": "85254",
            "open": true
          },
          {
            "location": "Scottsdale South",
            "salesforceValue": "Phoenix (Scottsdale South)",
            "stateShort": "AZ",
            "place_id": "",
            "zipcode": "85251",
            "open": false
          }
        ]
      },
      {
        "city": "Tucson",
        "pathname": "tucson",
        "locations": [
          {
            "location": "Tucson",
            "salesforceValue": "Tucson",
            "stateShort": "AZ",
            "place_id": "",
            "zipcode": "85705",
            "open": true
          }
        ]
      }
    ]
  },

  {
    "state": "Nebraska",
    "stateShort": "NE",
    "stores": [
      {
        "city": "Lincoln",
        "pathname": "lincoln",
        "locations": [
          {
            "location": "Lincoln South",
            "salesforceValue": "Lincoln",
            "stateShort": "NE",
            "place_id": "",
            "zipcode": "85226",
            "open": true
          },
          {
            "location": "Lincoln North",
            "salesforceValue": "Lincoln (North)",
            "stateShort": "NE",
            "place_id": "",
            "zipcode": "85382",
            "open": false
          }
        ]
      },
      {
        "city": "Omaha",
        "pathname": "omaha",
        "locations": [
          {
            "location": "Omaha Central",
            "salesforceValue": "Omaha Central",
            "stateShort": "NE",
            "place_id": "ChIJr_f-gGGKk4cRcwDQZ1D_mmo",
            "zipcode": "85226",
            "open": true
          },
          {
            "location": "Omaha West",
            "salesforceValue": "Omaha West",
            "stateShort": "NE",
            "place_id": "ChIJ8ccP1Qvxk4cRyN7eIlg0wBM",
            "zipcode": "85382",
            "open": true
          }
        ]
      }
    ]
  },
  
  {
    "state": "Texas",
    "stateShort": "TX",
    "stores": [
      {
        "city": "Austin",
        "pathname": "austin",
        "locations": [
          {
            "location": "Austin",
            "salesforceValue": "Austin",
            "stateShort": "TX",
            "place_id": "",
            "zipcode": "78759",
            "open": true
          }
        ]
      },
      {
        "city": "College Station",
        "pathname": "collegestation",
        "locations": [
          {
            "location": "College Station",
            "salesforceValue": "College Station",
            "stateShort": "TX",
            "place_id": "",
            "zipcode": "77840",
            "open": true
          }
        ]
      },
      {
        "city": "Houston",
        "pathname": "houston",
        "locations": [
          {
            "location": "Richmond",
            "salesforceValue": "Houston (Richmond)",
            "stateShort": "TX",
            "place_id": "",
            "zipcode": "77406",
            "open": false
          },
          {
            "location": "Spring",
            "salesforceValue": "Houston (Spring)",
            "stateShort": "TX",
            "place_id": "",
            "zipcode": "77380",
            "open": false
          },
          {
            "location": "Webster",
            "salesforceValue": "Houston (Webster)",
            "stateShort": "TX",
            "place_id": "",
            "zipcode": "77598",
            "open": true
          },
          {
            "location": "Humble",
            "salesforceValue": "Houston (Humble)",
            "stateShort": "TX",
            "place_id": "",
            "zipcode": "77346",
            "open": false
          },
          {
            "location": "Galleria",
            "locationOnAddress": "Houston",
            "salesforceValue": "Houston (Galleria)",
            "stateShort": "TX",
            "place_id": "",
            "zipcode": "77057",
            "open": false
          },
          {
            "location": "Pearland",
            "salesforceValue": "Houston (Pearland",
            "stateShort": "TX",
            "place_id": "",
            "zipcode": "77584",
            "open": false
          },
          {
            "location": "Cypress",
            "locationOnAddress": "same",
            "salesforceValue": "Houston (Cypress)",
            "stateShort": "TX",
            "place_id": "",
            "zipcode": "77429",
            "open": false
          }
        ]
      }
    ]
  }
]
